{
  "type": "FeatureCollection",
  "features": [
    {
      "type": "Feature",
      "properties": {
        "norad_id": 66475,
        "name": "STARLINK-35538",
        "group": "last-30-days",
        "lat": -41.11428112856085,
        "lon": -1.3568370017490297,
        "alt_km": 419.3577826688288,
        "timestamp": "2025-12-13T05:42:56.154575+00:00",
        "meta_object_name": "STARLINK-35538",
        "meta_object_id": "2025-262V",
        "meta_epoch": "2025-12-12T05:17:12.814080",
        "meta_mean_motion": 15.49531988,
        "meta_eccentricity": 0.00074148,
        "meta_inclination": 43.0002,
        "meta_ra_of_asc_node": 74.0815,
        "meta_arg_of_pericenter": 203.649,
        "meta_mean_anomaly": 156.403,
        "meta_ephemeris_type": 0,
        "meta_classification_type": "U",
        "meta_norad_cat_id": 66475,
        "meta_element_set_no": 999,
        "meta_rev_at_epoch": 548,
        "meta_bstar": 0.0020630867,
        "meta_mean_motion_dot": 0.00118164,
        "meta_mean_motion_ddot": 0,
        "tle_line1": "1 66475U 25262V   25346.22028720  .00118164  00000+0  20631-2 0  9992",
        "tle_line2": "2 66475  43.0002  74.0815 0007414 203.6490 156.4030 15.49531988  5483"
      },
      "geometry": {
        "type": "Point",
        "coordinates": [
          -1.3568370017490297,
          -41.11428112856085
        ]
      }
    },
    {
      "type": "Feature",
      "properties": {
        "norad_id": 66476,
        "name": "STARLINK-35372",
        "group": "last-30-days",
        "lat": -38.30039938102151,
        "lon": 10.166802951391322,
        "alt_km": 415.5412881032271,
        "timestamp": "2025-12-13T05:42:56.154586+00:00",
        "meta_object_name": "STARLINK-35372",
        "meta_object_id": "2025-262W",
        "meta_epoch": "2025-12-11T15:21:21.149568",
        "meta_mean_motion": 15.50643698,
        "meta_eccentricity": 0.00013866,
        "meta_inclination": 43.0002,
        "meta_ra_of_asc_node": 77.4654,
        "meta_arg_of_pericenter": 284.004,
        "meta_mean_anomaly": 76.0666,
        "meta_ephemeris_type": 0,
        "meta_classification_type": "U",
        "meta_norad_cat_id": 66476,
        "meta_element_set_no": 999,
        "meta_rev_at_epoch": 528,
        "meta_bstar": 0.0028408412,
        "meta_mean_motion_dot": 0.00170386,
        "meta_mean_motion_ddot": 0,
        "tle_line1": "1 66476U 25262W   25345.63982812  .00170386  00000+0  28408-2 0  9992",
        "tle_line2": "2 66476  43.0002  77.4654 0001386 284.0040  76.0666 15.50643698  5282"
      },
      "geometry": {
        "type": "Point",
        "coordinates": [
          10.166802951391322,
          -38.30039938102151
        ]
      }
    },
    {
      "type": "Feature",
      "properties": {
        "norad_id": 66477,
        "name": "STARLINK-35354",
        "group": "last-30-days",
        "lat": -36.49076598468012,
        "lon": 15.554010357735445,
        "alt_km": 415.0695700575643,
        "timestamp": "2025-12-13T05:42:56.154599+00:00",
        "meta_object_name": "STARLINK-35354",
        "meta_object_id": "2025-262X",
        "meta_epoch": "2025-12-11T07:36:34.693344",
        "meta_mean_motion": 15.50668561,
        "meta_eccentricity": 0.00016097,
        "meta_inclination": 43.0001,
        "meta_ra_of_asc_node": 79.3431,
        "meta_arg_of_pericenter": 267.1783,
        "meta_mean_anomaly": 92.8893,
        "meta_ephemeris_type": 0,
        "meta_classification_type": "U",
        "meta_norad_cat_id": 66477,
        "meta_element_set_no": 999,
        "meta_rev_at_epoch": 534,
        "meta_bstar": 0.0026959533,
        "meta_mean_motion_dot": 0.0016164,
        "meta_mean_motion_ddot": 0,
        "tle_line1": "1 66477U 25262X   25345.31706821  .00161640  00000+0  26960-2 0  9996",
        "tle_line2": "2 66477  43.0001  79.3431 0001609 267.1783  92.8893 15.50668561  5341"
      },
      "geometry": {
        "type": "Point",
        "coordinates": [
          15.554010357735445,
          -36.49076598468012
        ]
      }
    },
    {
      "type": "Feature",
      "properties": {
        "norad_id": 66478,
        "name": "STARLINK-35283",
        "group": "last-30-days",
        "lat": -35.407235936293276,
        "lon": 18.37468159754891,
        "alt_km": 414.56750163468223,
        "timestamp": "2025-12-13T05:42:56.154610+00:00",
        "meta_object_name": "STARLINK-35283",
        "meta_object_id": "2025-262Y",
        "meta_epoch": "2025-12-11T07:36:04.808448",
        "meta_mean_motion": 15.50692325,
        "meta_eccentricity": 0.00017473,
        "meta_inclination": 43,
        "meta_ra_of_asc_node": 79.3398,
        "meta_arg_of_pericenter": 260.3131,
        "meta_mean_anomaly": 99.7532,
        "meta_ephemeris_type": 0,
        "meta_classification_type": "U",
        "meta_norad_cat_id": 66478,
        "meta_element_set_no": 999,
        "meta_rev_at_epoch": 534,
        "meta_bstar": 0.0032392192,
        "meta_mean_motion_dot": 0.00195292,
        "meta_mean_motion_ddot": 0,
        "tle_line1": "1 66478U 25262Y   25345.31672232  .00195292  00000+0  32392-2 0  9991",
        "tle_line2": "2 66478  43.0000  79.3398 0001747 260.3131  99.7532 15.50692325  5349"
      },
      "geometry": {
        "type": "Point",
        "coordinates": [
          18.37468159754891,
          -35.407235936293276
        ]
      }
    },
    {
      "type": "Feature",
      "properties": {
        "norad_id": 66479,
        "name": "STARLINK-35581",
        "group": "last-30-days",
        "lat": -37.83941621717944,
        "lon": 11.63642444070352,
        "alt_km": 416.00914678381105,
        "timestamp": "2025-12-13T05:42:56.154624+00:00",
        "meta_object_name": "STARLINK-35581",
        "meta_object_id": "2025-262Z",
        "meta_epoch": "2025-12-11T15:20:51.362304",
        "meta_mean_motion": 15.506173,
        "meta_eccentricity": 0.00015898,
        "meta_inclination": 43.0004,
        "meta_ra_of_asc_node": 77.461,
        "meta_arg_of_pericenter": 271.2867,
        "meta_mean_anomaly": 88.7811,
        "meta_ephemeris_type": 0,
        "meta_classification_type": "U",
        "meta_norad_cat_id": 66479,
        "meta_element_set_no": 999,
        "meta_rev_at_epoch": 539,
        "meta_bstar": 0.0018832674,
        "meta_mean_motion_dot": 0.00111886,
        "meta_mean_motion_ddot": 0,
        "tle_line1": "1 66479U 25262Z   25345.63948336  .00111886  00000+0  18833-2 0  9999",
        "tle_line2": "2 66479  43.0004  77.4610 0001589 271.2867  88.7811 15.50617300  5394"
      },
      "geometry": {
        "type": "Point",
        "coordinates": [
          11.63642444070352,
          -37.83941621717944
        ]
      }
    },
    {
      "type": "Feature",
      "properties": {
        "norad_id": 66480,
        "name": "STARLINK-35670",
        "group": "last-30-days",
        "lat": -35.7502291096342,
        "lon": 17.5102428352091,
        "alt_km": 416.08387829237927,
        "timestamp": "2025-12-13T05:42:56.154636+00:00",
        "meta_object_name": "STARLINK-35670",
        "meta_object_id": "2025-262AA",
        "meta_epoch": "2025-12-12T06:46:57.841824",
        "meta_mean_motion": 15.50638281,
        "meta_eccentricity": 0.00020323,
        "meta_inclination": 43.0005,
        "meta_ra_of_asc_node": 73.685,
        "meta_arg_of_pericenter": 249.0627,
        "meta_mean_anomaly": 111.0015,
        "meta_ephemeris_type": 0,
        "meta_classification_type": "U",
        "meta_norad_cat_id": 66480,
        "meta_element_set_no": 999,
        "meta_rev_at_epoch": 549,
        "meta_bstar": 0.0026026827,
        "meta_mean_motion_dot": 0.00155752,
        "meta_mean_motion_ddot": 0,
        "tle_line1": "1 66480U 25262AA  25346.28261391  .00155752  00000+0  26027-2 0  9996",
        "tle_line2": "2 66480  43.0005  73.6850 0002032 249.0627 111.0015 15.50638281  5490"
      },
      "geometry": {
        "type": "Point",
        "coordinates": [
          17.5102428352091,
          -35.7502291096342
        ]
      }
    },
    {
      "type": "Feature",
      "properties": {
        "norad_id": 66481,
        "name": "STARLINK-35698",
        "group": "last-30-days",
        "lat": -34.5945161735579,
        "lon": 20.34158333577528,
        "alt_km": 415.7998224882667,
        "timestamp": "2025-12-13T05:42:56.154647+00:00",
        "meta_object_name": "STARLINK-35698",
        "meta_object_id": "2025-262AB",
        "meta_epoch": "2025-12-11T15:18:52.907040",
        "meta_mean_motion": 15.50619658,
        "meta_eccentricity": 0.00014945,
        "meta_inclination": 43.0004,
        "meta_ra_of_asc_node": 77.4498,
        "meta_arg_of_pericenter": 285.2045,
        "meta_mean_anomaly": 74.865,
        "meta_ephemeris_type": 0,
        "meta_classification_type": "U",
        "meta_norad_cat_id": 66481,
        "meta_element_set_no": 999,
        "meta_rev_at_epoch": 539,
        "meta_bstar": 0.0020280216,
        "meta_mean_motion_dot": 0.00120658,
        "meta_mean_motion_ddot": 0,
        "tle_line1": "1 66481U 25262AB  25345.63811235  .00120658  00000+0  20280-2 0  9995",
        "tle_line2": "2 66481  43.0004  77.4498 0001494 285.2045  74.8650 15.50619658  5394"
      },
      "geometry": {
        "type": "Point",
        "coordinates": [
          20.34158333577528,
          -34.5945161735579
        ]
      }
    }
  ]
}